[{"OBJECT_NAME":"STARLINK-11640 [DTC]","OBJECT_ID":"2025-057H","EPOCH":"2026-01-02T13:07:00.823584","MEAN_MOTION":15.71003356,"ECCENTRICITY":0.00023689,"INCLINATION":42.9994,"RA_OF_ASC_NODE":303.3409,"ARG_OF_PERICENTER":284.4208,"MEAN_ANOMALY":75.6397,"EPHEMERIS_TYPE":0,"CLASSIFICATION_TYPE":"U","NORAD_CAT_ID":63314,"ELEMENT_SET_NO":999,"REV_AT_EPOCH":4677,"BSTAR":0.0025850439,"MEAN_MOTION_DOT":0.00347892,"MEAN_MOTION_DDOT":0},{"OBJECT_NAME":"STARLINK-11652 [DTC]","OBJECT_ID":"2025-057J","EPOCH":"2026-01-03T04:07:19.435872","MEAN_MOTION":15.70883662,"ECCENTRICITY":0.00018844,"INCLINATION":42.9994,"RA_OF_ASC_NODE":299.4221,"ARG_OF_PERICENTER":280.4575,"MEAN_ANOMALY":79.608,"EPHEMERIS_TYPE":0,"CLASSIFICATION_TYPE":"U","NORAD_CAT_ID":63315,"ELEMENT_SET_NO":999,"REV_AT_EPOCH":4690,"BSTAR":0.0029828378,"MEAN_MOTION_DOT":0.00402137,"MEAN_MOTION_DDOT":0},{"OBJECT_NAME":"STARLINK-11645 [DTC]","OBJECT_ID":"2025-057K","EPOCH":"2026-01-03T04:37:54.418080","MEAN_MOTION":15.70961413,"ECCENTRICITY":0.0001637,"INCLINATION":42.999,"RA_OF_ASC_NODE":299.5929,"ARG_OF_PERICENTER":265.843,"MEAN_ANOMALY":94.225,"EPHEMERIS_TYPE":0,"CLASSIFICATION_TYPE":"U","NORAD_CAT_ID":63316,"ELEMENT_SET_NO":999,"REV_AT_EPOCH":4690,"BSTAR":0.0029692,"MEAN_MOTION_DOT":0.00401577,"MEAN_MOTION_DDOT":0},{"OBJECT_NAME":"STARLINK-11633 [DTC]","OBJECT_ID":"2025-057L","EPOCH":"2026-01-03T03:29:05.853696","MEAN_MOTION":15.70924043,"ECCENTRICITY":0.00020653,"INCLINATION":42.9999,"RA_OF_ASC_NODE":299.2063,"ARG_OF_PERICENTER":269.4382,"MEAN_ANOMALY":90.6249,"EPHEMERIS_TYPE":0,"CLASSIFICATION_TYPE":"U","NORAD_CAT_ID":63317,"ELEMENT_SET_NO":999,"REV_AT_EPOCH":4687,"BSTAR":0.0025984012,"MEAN_MOTION_DOT":0.00348556,"MEAN_MOTION_DDOT":0},{"OBJECT_NAME":"STARLINK-11593 [DTC]","OBJECT_ID":"2025-057M","EPOCH":"2026-01-03T03:44:23.205696","MEAN_MOTION":15.70911434,"ECCENTRICITY":0.00022444,"INCLINATION":43.0019,"RA_OF_ASC_NODE":299.2924,"ARG_OF_PERICENTER":261.9077,"MEAN_ANOMALY":98.1536,"EPHEMERIS_TYPE":0,"CLASSIFICATION_TYPE":"U","NORAD_CAT_ID":63318,"ELEMENT_SET_NO":999,"REV_AT_EPOCH":4690,"BSTAR":0.0021585339,"MEAN_MOTION_DOT":0.00287168,"MEAN_MOTION_DDOT":0},{"OBJECT_NAME":"STARLINK-11588 [DTC]","OBJECT_ID":"2025-057N","EPOCH":"2026-01-03T03:59:40.639776","MEAN_MOTION":15.70947523,"ECCENTRICITY":0.00019899,"INCLINATION":42.9995,"RA_OF_ASC_NODE":299.3781,"ARG_OF_PERICENTER":254.6267,"MEAN_ANOMALY":105.4381,"EPHEMERIS_TYPE":0,"CLASSIFICATION_TYPE":"U","NORAD_CAT_ID":63319,"ELEMENT_SET_NO":999,"REV_AT_EPOCH":4687,"BSTAR":0.0024235952,"MEAN_MOTION_DOT":0.00324443,"MEAN_MOTION_DDOT":0},{"OBJECT_NAME":"STARLINK-33671","OBJECT_ID":"2025-057P","EPOCH":"2026-01-03T10:55:44.588352","MEAN_MOTION":15.27604008,"ECCENTRICITY":0.0001093,"INCLINATION":43.0015,"RA_OF_ASC_NODE":28.6271,"ARG_OF_PERICENTER":263.2694,"MEAN_ANOMALY":96.8033,"EPHEMERIS_TYPE":0,"CLASSIFICATION_TYPE":"U","NORAD_CAT_ID":63320,"ELEMENT_SET_NO":999,"REV_AT_EPOCH":4592,"BSTAR":0.0014294,"MEAN_MOTION_DOT":0.0003931,"MEAN_MOTION_DDOT":0},{"OBJECT_NAME":"STARLINK-33650","OBJECT_ID":"2025-057Q","EPOCH":"2026-01-03T09:25:02.281728","MEAN_MOTION":15.27567218,"ECCENTRICITY":0.0001027,"INCLINATION":43.0008,"RA_OF_ASC_NODE":39.3968,"ARG_OF_PERICENTER":233.8963,"MEAN_ANOMALY":126.1794,"EPHEMERIS_TYPE":0,"CLASSIFICATION_TYPE":"U","NORAD_CAT_ID":63321,"ELEMENT_SET_NO":999,"REV_AT_EPOCH":4575,"BSTAR":0.0013488,"MEAN_MOTION_DOT":0.00037026,"MEAN_MOTION_DDOT":0},{"OBJECT_NAME":"STARLINK-33689","OBJECT_ID":"2025-057R","EPOCH":"2026-01-03T10:48:06.757344","MEAN_MOTION":15.27577348,"ECCENTRICITY":0.0001118,"INCLINATION":43.0025,"RA_OF_ASC_NODE":38.9643,"ARG_OF_PERICENTER":258.7582,"MEAN_ANOMALY":101.3144,"EPHEMERIS_TYPE":0,"CLASSIFICATION_TYPE":"U","NORAD_CAT_ID":63322,"ELEMENT_SET_NO":999,"REV_AT_EPOCH":4580,"BSTAR":0.0015393,"MEAN_MOTION_DOT":0.00042336,"MEAN_MOTION_DDOT":0},{"OBJECT_NAME":"STARLINK-33607","OBJECT_ID":"2025-057S","EPOCH":"2026-01-03T03:28:46.105248","MEAN_MOTION":15.27593967,"ECCENTRICITY":0.00014674,"INCLINATION":42.9982,"RA_OF_ASC_NODE":40.972,"ARG_OF_PERICENTER":194.9095,"MEAN_ANOMALY":165.1714,"EPHEMERIS_TYPE":0,"CLASSIFICATION_TYPE":"U","NORAD_CAT_ID":63323,"ELEMENT_SET_NO":999,"REV_AT_EPOCH":4571,"BSTAR":0.001351414,"MEAN_MOTION_DOT":0.00037129,"MEAN_MOTION_DDOT":0},{"OBJECT_NAME":"STARLINK-33619","OBJECT_ID":"2025-057T","EPOCH":"2026-01-03T10:35:08.657952","MEAN_MOTION":15.27600042,"ECCENTRICITY":0.0001045,"INCLINATION":42.9991,"RA_OF_ASC_NODE":38.8905,"ARG_OF_PERICENTER":269.3734,"MEAN_ANOMALY":90.6998,"EPHEMERIS_TYPE":0,"CLASSIFICATION_TYPE":"U","NORAD_CAT_ID":63324,"ELEMENT_SET_NO":999,"REV_AT_EPOCH":4580,"BSTAR":0.0018192,"MEAN_MOTION_DOT":0.00050169,"MEAN_MOTION_DDOT":0},{"OBJECT_NAME":"STARLINK-33612","OBJECT_ID":"2025-057U","EPOCH":"2026-01-03T02:29:46.334400","MEAN_MOTION":15.27599419,"ECCENTRICITY":8.453e-5,"INCLINATION":42.9977,"RA_OF_ASC_NODE":41.5281,"ARG_OF_PERICENTER":155.0641,"MEAN_ANOMALY":205.0251,"EPHEMERIS_TYPE":0,"CLASSIFICATION_TYPE":"U","NORAD_CAT_ID":63325,"ELEMENT_SET_NO":999,"REV_AT_EPOCH":4574,"BSTAR":0.001630178,"MEAN_MOTION_DOT":0.00044897,"MEAN_MOTION_DDOT":0},{"OBJECT_NAME":"STARLINK-33672","OBJECT_ID":"2025-057V","EPOCH":"2026-01-03T09:23:11.402880","MEAN_MOTION":15.27598363,"ECCENTRICITY":0.0001315,"INCLINATION":43.0011,"RA_OF_ASC_NODE":39.3699,"ARG_OF_PERICENTER":269.9177,"MEAN_ANOMALY":90.1524,"EPHEMERIS_TYPE":0,"CLASSIFICATION_TYPE":"U","NORAD_CAT_ID":63326,"ELEMENT_SET_NO":999,"REV_AT_EPOCH":4579,"BSTAR":0.0014004,"MEAN_MOTION_DOT":0.00038496,"MEAN_MOTION_DDOT":0},{"OBJECT_NAME":"STARLINK-33625","OBJECT_ID":"2025-057W","EPOCH":"2026-01-03T02:18:00.312480","MEAN_MOTION":15.27594102,"ECCENTRICITY":7.125e-5,"INCLINATION":43.0013,"RA_OF_ASC_NODE":33.6834,"ARG_OF_PERICENTER":222.9278,"MEAN_ANOMALY":137.1518,"EPHEMERIS_TYPE":0,"CLASSIFICATION_TYPE":"U","NORAD_CAT_ID":63327,"ELEMENT_SET_NO":999,"REV_AT_EPOCH":4583,"BSTAR":0.0015996383,"MEAN_MOTION_DOT":0.00044038,"MEAN_MOTION_DDOT":0},{"OBJECT_NAME":"STARLINK-33699","OBJECT_ID":"2025-057X","EPOCH":"2026-01-03T02:01:20.946144","MEAN_MOTION":15.2760872,"ECCENTRICITY":0.00012066,"INCLINATION":43.0014,"RA_OF_ASC_NODE":33.5902,"ARG_OF_PERICENTER":270.3963,"MEAN_ANOMALY":89.6751,"EPHEMERIS_TYPE":0,"CLASSIFICATION_TYPE":"U","NORAD_CAT_ID":63328,"ELEMENT_SET_NO":999,"REV_AT_EPOCH":4579,"BSTAR":0.0015883861,"MEAN_MOTION_DOT":0.00043745,"MEAN_MOTION_DDOT":0},{"OBJECT_NAME":"STARLINK-33674","OBJECT_ID":"2025-057Y","EPOCH":"2026-01-03T00:00:02.000160","MEAN_MOTION":15.27559091,"ECCENTRICITY":0.00011789,"INCLINATION":43.0031,"RA_OF_ASC_NODE":41.8938,"ARG_OF_PERICENTER":289.544,"MEAN_ANOMALY":309.9048,"EPHEMERIS_TYPE":0,"CLASSIFICATION_TYPE":"U","NORAD_CAT_ID":63329,"ELEMENT_SET_NO":999,"REV_AT_EPOCH":582,"BSTAR":0.0020192668,"MEAN_MOTION_DOT":0.00055688,"MEAN_MOTION_DDOT":0}]
