STARLINK-11640 [DTC]    
1 63314U 25057H   26002.54653731  .00347892  00000+0  25850-2 0  9994
2 63314  42.9994 303.3409 0002368 284.4208  75.6397 15.71003356 46777
STARLINK-11652 [DTC]    
1 63315U 25057J   26003.17175273  .00402137  00000+0  29828-2 0  9998
2 63315  42.9994 299.4221 0001884 280.4575  79.6080 15.70883662 46903
STARLINK-11645 [DTC]    
1 63316U 25057K   26003.19299095  .00401577  00000+0  29692-2 0  9996
2 63316  42.9990 299.5929 0001637 265.8430  94.2250 15.70961413 46902
STARLINK-11633 [DTC]    
1 63317U 25057L   26003.14520664  .00348556  00000+0  25984-2 0  9998
2 63317  42.9999 299.2063 0002065 269.4382  90.6249 15.70924043 46872
STARLINK-11593 [DTC]    
1 63318U 25057M   26003.15582414  .00287168  00000+0  21585-2 0  9995
2 63318  43.0019 299.2924 0002244 261.9077  98.1536 15.70911434 46907
STARLINK-11588 [DTC]    
1 63319U 25057N   26003.16644259  .00324443  00000+0  24236-2 0  9997
2 63319  42.9995 299.3781 0001989 254.6267 105.4381 15.70947523 46870
STARLINK-33671          
1 63320U 25057P   26003.45537718  .00039310  00000+0  14294-2 0  9991
2 63320  43.0015  28.6271 0001093 263.2694  96.8033 15.27604008 45922
STARLINK-33650          
1 63321U 25057Q   26003.39238752  .00037026  00000+0  13488-2 0  9997
2 63321  43.0008  39.3968 0001027 233.8963 126.1794 15.27567218 45759
STARLINK-33689          
1 63322U 25057R   26003.45007821  .00042336  00000+0  15393-2 0  9993
2 63322  43.0025  38.9643 0001118 258.7582 101.3144 15.27577348 45803
STARLINK-33607          
1 63323U 25057S   26003.14497807  .00037129  00000+0  13514-2 0  9994
2 63323  42.9982  40.9720 0001467 194.9095 165.1714 15.27593967 45716
STARLINK-33619          
1 63324U 25057T   26003.44107243  .00050169  00000+0  18192-2 0  9996
2 63324  42.9991  38.8905 0001045 269.3734  90.6998 15.27600042 45806
STARLINK-33612          
1 63325U 25057U   26003.10400850  .00044897  00000+0  16302-2 0  9992
2 63325  42.9977  41.5281 0000845 155.0641 205.0251 15.27599419 45746
STARLINK-33672          
1 63326U 25057V   26003.39110420  .00038496  00000+0  14004-2 0  9990
2 63326  43.0011  39.3699 0001315 269.9177  90.1524 15.27598363 45796
STARLINK-33625          
1 63327U 25057W   26003.09583695  .00044038  00000+0  15996-2 0  9996
2 63327  43.0013  33.6834 0000712 222.9278 137.1518 15.27594102 45835
STARLINK-33699          
1 63328U 25057X   26003.08427021  .00043745  00000+0  15884-2 0  9996
2 63328  43.0014  33.5902 0001206 270.3963  89.6751 15.27608720 45796
STARLINK-33674          
1 63329U 25057Y   26003.00002315  .00055688  00000+0  20193-2 0  9992
2 63329  43.0031  41.8938 0001178 289.5440 309.9048 15.27559091  5820
